{"type": "FeatureCollection", "features": [{"type": "Feature", "properties": {"type": "industrial", "source": "OSM_mock_for_demo"}, "bbox": [56.0, 27.099999999999998, 56.2, 27.3]}, {"type": "Feature", "properties": {"type": "forest", "source": "OSM_mock_for_demo"}, "bbox": [85.10000000000001, 20.9, 85.3, 21.1]}, {"type": "Feature", "properties": {"type": "farmland", "source": "OSM_mock_for_demo"}, "bbox": [61.5, 37.5, 61.7, 37.7]}, {"type": "Feature", "properties": {"type": "industrial", "source": "OSM_mock_for_demo"}, "bbox": [57.6, 21.2, 57.800000000000004, 21.400000000000002]}, {"type": "Feature", "properties": {"type": "industrial", "source": "OSM_mock_for_demo"}, "bbox": [63.199999999999996, 39.1, 63.4, 39.300000000000004]}, {"type": "Feature", "properties": {"type": "industrial", "source": "OSM_mock_for_demo"}, "bbox": [56.5, 24.4, 56.7, 24.6]}, {"type": "Feature", "properties": {"type": "industrial", "source": "OSM_mock_for_demo"}, "bbox": [85.2, 20.7, 85.39999999999999, 20.900000000000002]}, {"type": "Feature", "properties": {"type": "industrial", "source": "OSM_mock_for_demo"}, "bbox": [62.3, 37.0, 62.5, 37.2]}, {"type": "Feature", "properties": {"type": "industrial", "source": "OSM_mock_for_demo"}, "bbox": [76.60000000000001, 15.1, 76.8, 15.299999999999999]}, {"type": "Feature", "properties": {"type": "industrial", "source": "OSM_mock_for_demo"}, "bbox": [84.9, 20.799999999999997, 85.1, 21.0]}]}